[{"OBJECT_NAME":"IRIDIUM 33 DEB","OBJECT_ID":"1997-051AT","EPOCH":"2023-09-15T09:38:46.134240","MEAN_MOTION":14.44682216,"ECCENTRICITY":0.0050563,"INCLINATION":86.2852,"RA_OF_ASC_NODE":16.4084,"ARG_OF_PERICENTER":200.3796,"MEAN_ANOMALY":231.3842,"EPHEMERIS_TYPE":0,"CLASSIFICATION_TYPE":"U","NORAD_CAT_ID":33874,"ELEMENT_SET_NO":999,"REV_AT_EPOCH":75972,"BSTAR":0.0060808,"MEAN_MOTION_DOT":0.00021472,"MEAN_MOTION_DDOT":0},{"OBJECT_NAME":"IRIDIUM 33 DEB","OBJECT_ID":"1997-051AU","EPOCH":"2023-09-15T14:34:20.707104","MEAN_MOTION":14.99018396,"ECCENTRICITY":0.0016389,"INCLINATION":86.3981,"RA_OF_ASC_NODE":318.4556,"ARG_OF_PERICENTER":77.5998,"MEAN_ANOMALY":42.8957,"EPHEMERIS_TYPE":0,"CLASSIFICATION_TYPE":"U","NORAD_CAT_ID":33875,"ELEMENT_SET_NO":999,"REV_AT_EPOCH":77897,"BSTAR":0.0032896,"MEAN_MOTION_DOT":0.00040174,"MEAN_MOTION_DDOT":0},{"OBJECT_NAME":"IRIDIUM 33 DEB","OBJECT_ID":"1997-051AX","EPOCH":"2023-09-15T08:47:18.852288","MEAN_MOTION":14.86780871,"ECCENTRICITY":0.0063118,"INCLINATION":86.3024,"RA_OF_ASC_NODE":11.0614,"ARG_OF_PERICENTER":343.3493,"MEAN_ANOMALY":16.5657,"EPHEMERIS_TYPE":0,"CLASSIFICATION_TYPE":"U","NORAD_CAT_ID":33878,"ELEMENT_SET_NO":999,"REV_AT_EPOCH":76283,"BSTAR":0.01193,"MEAN_MOTION_DOT":0.00111727,"MEAN_MOTION_DDOT":0},{"OBJECT_NAME":"IRIDIUM 33 DEB","OBJECT_ID":"1997-051BA","EPOCH":"2023-09-15T14:49:47.358336","MEAN_MOTION":14.32989016,"ECCENTRICITY":0.0070664,"INCLINATION":86.3821,"RA_OF_ASC_NODE":95.7591,"ARG_OF_PERICENTER":358.8249,"MEAN_ANOMALY":68.735,"EPHEMERIS_TYPE":0,"CLASSIFICATION_TYPE":"U","NORAD_CAT_ID":33881,"ELEMENT_SET_NO":999,"REV_AT_EPOCH":75682,"BSTAR":0.0015181,"MEAN_MOTION_DOT":4.288e-5,"MEAN_MOTION_DDOT":0},{"OBJECT_NAME":"IRIDIUM 33 DEB","OBJECT_ID":"1997-051BD","EPOCH":"2023-09-15T08:44:56.834880","MEAN_MOTION":14.53796214,"ECCENTRICITY":0.0012992,"INCLINATION":86.3845,"RA_OF_ASC_NODE":12.104,"ARG_OF_PERICENTER":243.948,"MEAN_ANOMALY":176.7313,"EPHEMERIS_TYPE":0,"CLASSIFICATION_TYPE":"U","NORAD_CAT_ID":33884,"ELEMENT_SET_NO":999,"REV_AT_EPOCH":76851,"BSTAR":0.001502,"MEAN_MOTION_DOT":6.329e-5,"MEAN_MOTION_DDOT":0},{"OBJECT_NAME":"IRIDIUM 33 DEB","OBJECT_ID":"1997-051BF","EPOCH":"2023-09-15T12:17:50.960832","MEAN_MOTION":14.3423565,"ECCENTRICITY":0.0015733,"INCLINATION":86.3823,"RA_OF_ASC_NODE":51.3826,"ARG_OF_PERICENTER":49.1724,"MEAN_ANOMALY":17.1502,"EPHEMERIS_TYPE":0,"CLASSIFICATION_TYPE":"U","NORAD_CAT_ID":33886,"ELEMENT_SET_NO":999,"REV_AT_EPOCH":76302,"BSTAR":0.00029232,"MEAN_MOTION_DOT":8.4e-6,"MEAN_MOTION_DDOT":0},{"OBJECT_NAME":"IRIDIUM 33 DEB","OBJECT_ID":"1997-051BG","EPOCH":"2023-09-15T07:18:58.633056","MEAN_MOTION":14.35739203,"ECCENTRICITY":0.0007992,"INCLINATION":86.3112,"RA_OF_ASC_NODE":355.9086,"ARG_OF_PERICENTER":54.1223,"MEAN_ANOMALY":12.2645,"EPHEMERIS_TYPE":0,"CLASSIFICATION_TYPE":"U","NORAD_CAT_ID":33887,"ELEMENT_SET_NO":999,"REV_AT_EPOCH":76401,"BSTAR":0.00025553,"MEAN_MOTION_DOT":7.58e-6,"MEAN_MOTION_DDOT":0},{"OBJECT_NAME":"IRIDIUM 33 DEB","OBJECT_ID":"1997-051BH","EPOCH":"2023-09-15T11:59:04.417152","MEAN_MOTION":14.61369952,"ECCENTRICITY":0.0032579,"INCLINATION":86.3183,"RA_OF_ASC_NODE":6.5851,"ARG_OF_PERICENTER":286.666,"MEAN_ANOMALY":73.0975,"EPHEMERIS_TYPE":0,"CLASSIFICATION_TYPE":"U","NORAD_CAT_ID":33888,"ELEMENT_SET_NO":999,"REV_AT_EPOCH":76428,"BSTAR":0.0047718,"MEAN_MOTION_DOT":0.00023846,"MEAN_MOTION_DDOT":0},{"OBJECT_NAME":"IRIDIUM 33 DEB","OBJECT_ID":"1997-051BM","EPOCH":"2023-09-14T16:34:21.663264","MEAN_MOTION":14.79076333,"ECCENTRICITY":0.0008714,"INCLINATION":86.3443,"RA_OF_ASC_NODE":331.7669,"ARG_OF_PERICENTER":341.5111,"MEAN_ANOMALY":18.5791,"EPHEMERIS_TYPE":0,"CLASSIFICATION_TYPE":"U","NORAD_CAT_ID":33952,"ELEMENT_SET_NO":999,"REV_AT_EPOCH":77189,"BSTAR":0.0046827,"MEAN_MOTION_DOT":0.00034828,"MEAN_MOTION_DDOT":0},{"OBJECT_NAME":"IRIDIUM 33 DEB","OBJECT_ID":"1997-051BN","EPOCH":"2023-09-15T16:45:00.560160","MEAN_MOTION":14.43386205,"ECCENTRICITY":0.0021211,"INCLINATION":86.3909,"RA_OF_ASC_NODE":45.2742,"ARG_OF_PERICENTER":311.8977,"MEAN_ANOMALY":61.1768,"EPHEMERIS_TYPE":0,"CLASSIFICATION_TYPE":"U","NORAD_CAT_ID":33953,"ELEMENT_SET_NO":999,"REV_AT_EPOCH":76489,"BSTAR":0.0011465,"MEAN_MOTION_DOT":3.897e-5,"MEAN_MOTION_DDOT":0},{"OBJECT_NAME":"IRIDIUM 33 DEB","OBJECT_ID":"1997-051BU","EPOCH":"2023-09-15T10:48:12.477024","MEAN_MOTION":14.47872192,"ECCENTRICITY":0.0076077,"INCLINATION":86.3582,"RA_OF_ASC_NODE":55.7942,"ARG_OF_PERICENTER":138.6986,"MEAN_ANOMALY":222.0006,"EPHEMERIS_TYPE":0,"CLASSIFICATION_TYPE":"U","NORAD_CAT_ID":33959,"ELEMENT_SET_NO":999,"REV_AT_EPOCH":76013,"BSTAR":0.0085264,"MEAN_MOTION_DOT":0.00032887,"MEAN_MOTION_DDOT":0},{"OBJECT_NAME":"IRIDIUM 33 DEB","OBJECT_ID":"1997-051BV","EPOCH":"2023-09-15T14:34:39.946656","MEAN_MOTION":14.54692815,"ECCENTRICITY":0.0002214,"INCLINATION":86.2665,"RA_OF_ASC_NODE":304.2852,"ARG_OF_PERICENTER":28.066,"MEAN_ANOMALY":98.8255,"EPHEMERIS_TYPE":0,"CLASSIFICATION_TYPE":"U","NORAD_CAT_ID":33960,"ELEMENT_SET_NO":999,"REV_AT_EPOCH":76849,"BSTAR":0.0017465,"MEAN_MOTION_DOT":7.492e-5,"MEAN_MOTION_DDOT":0},{"OBJECT_NAME":"IRIDIUM 33 DEB","OBJECT_ID":"1997-051CA","EPOCH":"2023-09-15T06:50:48.647328","MEAN_MOTION":14.65469919,"ECCENTRICITY":0.0009894,"INCLINATION":86.3677,"RA_OF_ASC_NODE":356.5169,"ARG_OF_PERICENTER":42.8263,"MEAN_ANOMALY":317.3719,"EPHEMERIS_TYPE":0,"CLASSIFICATION_TYPE":"U","NORAD_CAT_ID":33965,"ELEMENT_SET_NO":999,"REV_AT_EPOCH":76966,"BSTAR":0.0032326,"MEAN_MOTION_DOT":0.0001756,"MEAN_MOTION_DDOT":0},{"OBJECT_NAME":"IRIDIUM 33 DEB","OBJECT_ID":"1997-051CB","EPOCH":"2023-09-15T09:20:08.170080","MEAN_MOTION":14.43388266,"ECCENTRICITY":0.0009508,"INCLINATION":86.3966,"RA_OF_ASC_NODE":35.6642,"ARG_OF_PERICENTER":63.9245,"MEAN_ANOMALY":354.614,"EPHEMERIS_TYPE":0,"CLASSIFICATION_TYPE":"U","NORAD_CAT_ID":33966,"ELEMENT_SET_NO":999,"REV_AT_EPOCH":76597,"BSTAR":0.00091009,"MEAN_MOTION_DOT":3.091e-5,"MEAN_MOTION_DDOT":0},{"OBJECT_NAME":"IRIDIUM 33 DEB","OBJECT_ID":"1997-051CE","EPOCH":"2023-09-15T16:46:58.843488","MEAN_MOTION":14.4251571,"ECCENTRICITY":0.0005879,"INCLINATION":86.3537,"RA_OF_ASC_NODE":11.6039,"ARG_OF_PERICENTER":320.4926,"MEAN_ANOMALY":39.5845,"EPHEMERIS_TYPE":0,"CLASSIFICATION_TYPE":"U","NORAD_CAT_ID":34071,"ELEMENT_SET_NO":999,"REV_AT_EPOCH":76556,"BSTAR":0.00077569,"MEAN_MOTION_DOT":2.59e-5,"MEAN_MOTION_DDOT":0},{"OBJECT_NAME":"IRIDIUM 33 DEB","OBJECT_ID":"1997-051CL","EPOCH":"2023-09-15T11:54:18.714816","MEAN_MOTION":14.46040094,"ECCENTRICITY":0.0012754,"INCLINATION":86.3936,"RA_OF_ASC_NODE":46.2208,"ARG_OF_PERICENTER":261.0444,"MEAN_ANOMALY":165.4364,"EPHEMERIS_TYPE":0,"CLASSIFICATION_TYPE":"U","NORAD_CAT_ID":34077,"ELEMENT_SET_NO":999,"REV_AT_EPOCH":76420,"BSTAR":0.0014131,"MEAN_MOTION_DOT":5.06e-5,"MEAN_MOTION_DDOT":0}]
