IRIDIUM 33 DEB          
1 33874U 97051AT  23258.40192285  .00021472  00000+0  60808-2 0  9997
2 33874  86.2852  16.4084 0050563 200.3796 231.3842 14.44682216759728
IRIDIUM 33 DEB          
1 33875U 97051AU  23258.60718411  .00040174  00000+0  32896-2 0  9991
2 33875  86.3981 318.4556 0016389  77.5998  42.8957 14.99018396778970
IRIDIUM 33 DEB          
1 33878U 97051AX  23258.36619042  .00111727  00000+0  11930-1 0  9995
2 33878  86.3024  11.0614 0063118 343.3493  16.5657 14.86780871762831
IRIDIUM 33 DEB          
1 33881U 97051BA  23258.61790924  .00004288  00000+0  15181-2 0  9992
2 33881  86.3821  95.7591 0070664 358.8249  68.7350 14.32989016756821
IRIDIUM 33 DEB          
1 33884U 97051BD  23258.36454670  .00006329  00000+0  15020-2 0  9992
2 33884  86.3845  12.1040 0012992 243.9480 176.7313 14.53796214768510
IRIDIUM 33 DEB          
1 33886U 97051BF  23258.51239538  .00000840  00000+0  29232-3 0  9998
2 33886  86.3823  51.3826 0015733  49.1724  17.1502 14.34235650763028
IRIDIUM 33 DEB          
1 33887U 97051BG  23258.30484529  .00000758  00000+0  25553-3 0  9998
2 33887  86.3112 355.9086 0007992  54.1223  12.2645 14.35739203764017
IRIDIUM 33 DEB          
1 33888U 97051BH  23258.49935668  .00023846  00000+0  47718-2 0  9993
2 33888  86.3183   6.5851 0032579 286.6660  73.0975 14.61369952764280
IRIDIUM 33 DEB          
1 33952U 97051BM  23257.69052851  .00034828  00000+0  46827-2 0  9992
2 33952  86.3443 331.7669 0008714 341.5111  18.5791 14.79076333771899
IRIDIUM 33 DEB          
1 33953U 97051BN  23258.69792315  .00003897  00000+0  11465-2 0  9992
2 33953  86.3909  45.2742 0021211 311.8977  61.1768 14.43386205764896
IRIDIUM 33 DEB          
1 33959U 97051BU  23258.45014441  .00032887  00000+0  85264-2 0  9998
2 33959  86.3582  55.7942 0076077 138.6986 222.0006 14.47872192760137
IRIDIUM 33 DEB          
1 33960U 97051BV  23258.60740679  .00007492  00000+0  17465-2 0  9998
2 33960  86.2665 304.2852 0002214  28.0660  98.8255 14.54692815768497
IRIDIUM 33 DEB          
1 33965U 97051CA  23258.28528527  .00017560  00000+0  32326-2 0  9993
2 33965  86.3677 356.5169 0009894  42.8263 317.3719 14.65469919769664
IRIDIUM 33 DEB          
1 33966U 97051CB  23258.38898345  .00003091  00000+0  91009-3 0  9991
2 33966  86.3966  35.6642 0009508  63.9245 354.6140 14.43388266765976
IRIDIUM 33 DEB          
1 34071U 97051CE  23258.69929217  .00002590  00000+0  77569-3 0  9994
2 34071  86.3537  11.6039 0005879 320.4926  39.5845 14.42515710765567
IRIDIUM 33 DEB          
1 34077U 97051CL  23258.49604994  .00005060  00000+0  14131-2 0  9990
2 34077  86.3936  46.2208 0012754 261.0444 165.4364 14.46040094764200
